{"type": "FeatureCollection", "features": [ {"type": "Feature", "properties": {"norad_id": 66589, "name": "STARLINK-35447", "group": "last-30-days", "lat": -42.00089044178002, "lon": 122.28066036965123, "alt_km": 417.19844361986907, "timestamp": "2025-12-11T22:43:46.024057+00:00", "meta": {"OBJECT_NAME": "STARLINK-35447", "OBJECT_ID": "2025-270B", "EPOCH": "2025-12-11T14:00:01.999872", "MEAN_MOTION": 15.50583223, "ECCENTRICITY": 0.00019877, "INCLINATION": 42.9998, "RA_OF_ASC_NODE": 199.49, "ARG_OF_PERICENTER": 264.3064, "MEAN_ANOMALY": 144.1054, "EPHEMERIS_TYPE": 0, "CLASSIFICATION_TYPE": "U", "NORAD_CAT_ID": 66589, "ELEMENT_SET_NO": 999, "REV_AT_EPOCH": 432, "BSTAR": -0.0012678648, "MEAN_MOTION_DOT": -0.00074037, "MEAN_MOTION_DDOT": 0}, "tle": {"line1": "1 66589U 25270B   25345.58335648 -.00074037  00000+0 -12679-2 0  9990", "line2": "2 66589  42.9998 199.4900 0001987 264.3064 144.1054 15.50583223  4321"}}, "geometry": {"type": "Point", "coordinates": [122.28066036965123, -42.00089044178002]}}, {"type": "Feature", "properties": {"norad_id": 66590, "name": "STARLINK-35429", "group": "last-30-days", "lat": -42.32388857469272, "lon": 119.59670646324415, "alt_km": 417.2864743479704, "timestamp": "2025-12-11T22:43:46.024067+00:00", "meta": {"OBJECT_NAME": "STARLINK-35429", "OBJECT_ID": "2025-270C", "EPOCH": "2025-12-11T14:00:01.999872", "MEAN_MOTION": 15.50416094, "ECCENTRICITY": 0.00021691, "INCLINATION": 42.9997, "RA_OF_ASC_NODE": 199.4948, "ARG_OF_PERICENTER": 247.5979, "MEAN_ANOMALY": 158.9068, "EPHEMERIS_TYPE": 0, "CLASSIFICATION_TYPE": "U", "NORAD_CAT_ID": 66590, "ELEMENT_SET_NO": 999, "REV_AT_EPOCH": 432, "BSTAR": 0.0022511213, "MEAN_MOTION_DOT": 0.0013322, "MEAN_MOTION_DDOT": 0}, "tle": {"line1": "1 66590U 25270C   25345.58335648  .00133220  00000+0  22511-2 0  9996", "line2": "2 66590  42.9997 199.4948 0002169 247.5979 158.9068 15.50416094  4324"}}, "geometry": {"type": "Point", "coordinates": [119.59670646324415, -42.32388857469272]}}, {"type": "Feature", "properties": {"norad_id": 66591, "name": "STARLINK-36058", "group": "last-30-days", "lat": -41.6412380025565, "lon": 124.77152042400888, "alt_km": 417.1826972082081, "timestamp": "2025-12-11T22:43:46.024079+00:00", "meta": {"OBJECT_NAME": "STARLINK-36058", "OBJECT_ID": "2025-270D", "EPOCH": "2025-12-11T14:00:01.999872", "MEAN_MOTION": 15.50560218, "ECCENTRICITY": 0.00020033, "INCLINATION": 42.9997, "RA_OF_ASC_NODE": 199.4853, "ARG_OF_PERICENTER": 256.3751, "MEAN_ANOMALY": 153.9297, "EPHEMERIS_TYPE": 0, "CLASSIFICATION_TYPE": "U", "NORAD_CAT_ID": 66591, "ELEMENT_SET_NO": 999, "REV_AT_EPOCH": 421, "BSTAR": -0.00017163063, "MEAN_MOTION_DOT": -0.00010391, "MEAN_MOTION_DDOT": 0}, "tle": {"line1": "1 66591U 25270D   25345.58335648 -.00010391  00000+0 -17163-3 0  9990", "line2": "2 66591  42.9997 199.4853 0002003 256.3751 153.9297 15.50560218  4218"}}, "geometry": {"type": "Point", "coordinates": [124.77152042400888, -41.6412380025565]}}, {"type": "Feature", "properties": {"norad_id": 66592, "name": "STARLINK-36066", "group": "last-30-days", "lat": -41.21571645113493, "lon": 127.30250313189879, "alt_km": 417.52257200099484, "timestamp": "2025-12-11T22:43:46.024089+00:00", "meta": {"OBJECT_NAME": "STARLINK-36066", "OBJECT_ID": "2025-270E", "EPOCH": "2025-12-11T14:00:01.999872", "MEAN_MOTION": 15.5061275, "ECCENTRICITY": 0.00018592, "INCLINATION": 42.9996, "RA_OF_ASC_NODE": 199.4807, "ARG_OF_PERICENTER": 247.4893, "MEAN_ANOMALY": 164.7631, "EPHEMERIS_TYPE": 0, "CLASSIFICATION_TYPE": "U", "NORAD_CAT_ID": 66592, "ELEMENT_SET_NO": 999, "REV_AT_EPOCH": 411, "BSTAR": -0.002624086, "MEAN_MOTION_DOT": -0.00151532, "MEAN_MOTION_DDOT": 0}, "tle": {"line1": "1 66592U 25270E   25345.58335648 -.00151532  00000+0 -26241-2 0  9990", "line2": "2 66592  42.9996 199.4807 0001859 247.4893 164.7631 15.50612750  4113"}}, "geometry": {"type": "Point", "coordinates": [127.30250313189879, -41.21571645113493]}}, {"type": "Feature", "properties": {"norad_id": 66593, "name": "STARLINK-36031", "group": "last-30-days", "lat": -40.74509561241183, "lon": 129.75252293049616, "alt_km": 417.49755944961, "timestamp": "2025-12-11T22:43:46.024099+00:00", "meta": {"OBJECT_NAME": "STARLINK-36031", "OBJECT_ID": "2025-270F", "EPOCH": "2025-12-11T14:00:01.999872", "MEAN_MOTION": 15.50599988, "ECCENTRICITY": 0.00017891, "INCLINATION": 42.9998, "RA_OF_ASC_NODE": 199.4764, "ARG_OF_PERICENTER": 248.0287, "MEAN_ANOMALY": 166.133, "EPHEMERIS_TYPE": 0, "CLASSIFICATION_TYPE": "U", "NORAD_CAT_ID": 66593, "ELEMENT_SET_NO": 999, "REV_AT_EPOCH": 421, "BSTAR": -0.0018305781, "MEAN_MOTION_DOT": -0.0010637, "MEAN_MOTION_DDOT": 0}, "tle": {"line1": "1 66593U 25270F   25345.58335648 -.00106370  00000+0 -18306-2 0  9994", "line2": "2 66593  42.9998 199.4764 0001789 248.0287 166.1330 15.50599988  4214"}}, "geometry": {"type": "Point", "coordinates": [129.75252293049616, -40.74509561241183]}}, {"type": "Feature", "properties": {"norad_id": 66594, "name": "STARLINK-36032", "group": "last-30-days", "lat": -40.22472860292533, "lon": 132.15684705918719, "alt_km": 417.2143562084375, "timestamp": "2025-12-11T22:43:46.024108+00:00", "meta": {"OBJECT_NAME": "STARLINK-36032", "OBJECT_ID": "2025-270G", "EPOCH": "2025-12-11T14:00:01.999872", "MEAN_MOTION": 15.50586572, "ECCENTRICITY": 0.00019967, "INCLINATION": 42.9996, "RA_OF_ASC_NODE": 199.471, "ARG_OF_PERICENTER": 259.9726, "MEAN_ANOMALY": 156.1029, "EPHEMERIS_TYPE": 0, "CLASSIFICATION_TYPE": "U", "NORAD_CAT_ID": 66594, "ELEMENT_SET_NO": 999, "REV_AT_EPOCH": 395, "BSTAR": -0.0013326294, "MEAN_MOTION_DOT": -0.00077774, "MEAN_MOTION_DDOT": 0}, "tle": {"line1": "1 66594U 25270G   25345.58335648 -.00077774  00000+0 -13326-2 0  9997", "line2": "2 66594  42.9996 199.4710 0001996 259.9726 156.1029 15.50586572  3952"}}, "geometry": {"type": "Point", "coordinates": [132.15684705918719, -40.22472860292533]}}, {"type": "Feature", "properties": {"norad_id": 66595, "name": "STARLINK-35711", "group": "last-30-days", "lat": -39.68262982351528, "lon": 134.4162152354307, "alt_km": 417.9496189666261, "timestamp": "2025-12-11T22:43:46.024120+00:00", "meta": {"OBJECT_NAME": "STARLINK-35711", "OBJECT_ID": "2025-270H", "EPOCH": "2025-12-11T14:00:01.999872", "MEAN_MOTION": 15.50403833, "ECCENTRICITY": 0.00010164, "INCLINATION": 42.9999, "RA_OF_ASC_NODE": 199.4658, "ARG_OF_PERICENTER": 250.876, "MEAN_ANOMALY": 167.1646, "EPHEMERIS_TYPE": 0, "CLASSIFICATION_TYPE": "U", "NORAD_CAT_ID": 66595, "ELEMENT_SET_NO": 999, "REV_AT_EPOCH": 432, "BSTAR": 0.0022324204, "MEAN_MOTION_DOT": 0.00132029, "MEAN_MOTION_DDOT": 0}, "tle": {"line1": "1 66595U 25270H   25345.58335648  .00132029  00000+0  22324-2 0  9999", "line2": "2 66595  42.9999 199.4658 0001016 250.8760 167.1646 15.50403833  4325"}}, "geometry": {"type": "Point", "coordinates": [134.4162152354307, -39.68262982351528]}}, {"type": "Feature", "properties": {"norad_id": 66596, "name": "STARLINK-35811", "group": "last-30-days", "lat": -39.56908773632528, "lon": 134.863762362848, "alt_km": 423.13762208005573, "timestamp": "2025-12-11T22:43:46.024131+00:00", "meta": {"OBJECT_NAME": "STARLINK-35811", "OBJECT_ID": "2025-270J", "EPOCH": "2025-12-11T14:00:01.999872", "MEAN_MOTION": 15.502658, "ECCENTRICITY": 0.00019363, "INCLINATION": 43, "RA_OF_ASC_NODE": 199.4615, "ARG_OF_PERICENTER": 263.5154, "MEAN_ANOMALY": 156.3036, "EPHEMERIS_TYPE": 0, "CLASSIFICATION_TYPE": "U", "NORAD_CAT_ID": 66596, "ELEMENT_SET_NO": 999, "REV_AT_EPOCH": 432, "BSTAR": -0.043516856, "MEAN_MOTION_DOT": -0.02225127, "MEAN_MOTION_DDOT": 0}, "tle": {"line1": "1 66596U 25270J   25345.58335648 -.02225127  00000+0 -43517-1 0  9992", "line2": "2 66596  43.0000 199.4615 0001936 263.5154 156.3036 15.50265800  4326"}}, "geometry": {"type": "Point", "coordinates": [134.863762362848, -39.56908773632528]}}, {"type": "Feature", "properties": {"norad_id": 66597, "name": "STARLINK-35820", "group": "last-30-days", "lat": -38.3647225045569, "lon": 139.17241688939794, "alt_km": 417.2264963740963, "timestamp": "2025-12-11T22:43:46.024141+00:00", "meta": {"OBJECT_NAME": "STARLINK-35820", "OBJECT_ID": "2025-270K", "EPOCH": "2025-12-11T14:00:01.999872", "MEAN_MOTION": 15.50598902, "ECCENTRICITY": 0.00019624, "INCLINATION": 42.9997, "RA_OF_ASC_NODE": 199.4566, "ARG_OF_PERICENTER": 260.1172, "MEAN_ANOMALY": 161.7075, "EPHEMERIS_TYPE": 0, "CLASSIFICATION_TYPE": "U", "NORAD_CAT_ID": 66597, "ELEMENT_SET_NO": 999, "REV_AT_EPOCH": 432, "BSTAR": -0.001725979, "MEAN_MOTION_DOT": -0.00100385, "MEAN_MOTION_DDOT": 0}, "tle": {"line1": "1 66597U 25270K   25345.58335648 -.00100385  00000+0 -17260-2 0  9996", "line2": "2 66597  42.9997 199.4566 0001962 260.1172 161.7075 15.50598902  4322"}}, "geometry": {"type": "Point", "coordinates": [139.17241688939794, -38.3647225045569]}}, {"type": "Feature", "properties": {"norad_id": 66598, "name": "STARLINK-35981", "group": "last-30-days", "lat": -37.612642694362776, "lon": 141.55108165851945, "alt_km": 417.59226612940347, "timestamp": "2025-12-11T22:43:46.024152+00:00", "meta": {"OBJECT_NAME": "STARLINK-35981", "OBJECT_ID": "2025-270L", "EPOCH": "2025-12-11T14:00:01.999872", "MEAN_MOTION": 15.50860535, "ECCENTRICITY": 0.00017347, "INCLINATION": 42.9998, "RA_OF_ASC_NODE": 199.4516, "ARG_OF_PERICENTER": 252.5221, "MEAN_ANOMALY": 171.1893, "EPHEMERIS_TYPE": 0, "CLASSIFICATION_TYPE": "U", "NORAD_CAT_ID": 66598, "ELEMENT_SET_NO": 999, "REV_AT_EPOCH": 405, "BSTAR": -0.0090360863, "MEAN_MOTION_DOT": -0.00502832, "MEAN_MOTION_DDOT": 0}, "tle": {"line1": "1 66598U 25270L   25345.58335648 -.00502832  00000+0 -90361-2 0  9993", "line2": "2 66598  42.9998 199.4516 0001734 252.5221 171.1893 15.50860535  4053"}}, "geometry": {"type": "Point", "coordinates": [141.55108165851945, -37.612642694362776]}}]}